NUSAT-1 (FRESCO)        
1 41557U 16033B   22251.52692307  .00015530  00000+0  43850-3 0  9997
2 41557  97.3892 349.4715 0011900  82.5232 333.5541 15.36390108350130
BEESAT-4                
1 41619U 16040W   22251.12849877  .00013910  00000+0  43778-3 0  9995
2 41619  97.2101 299.6239 0009580 170.0140 190.1295 15.33004955333380
CAS-2T & KS-1Q          
1 41847U 16066G   22251.17610108  .00000433  00000+0  75765-4 0  9992
2 41847  98.5441 315.7320 0362665 322.5707  35.0712 14.38711740306241
NAYIF-1 (EO-88)         
1 42017U 17008BX  22251.11832241  .00017488  00000+0  48697-3 0  9998
2 42017  97.2625 316.1305 0003227 320.7292  39.3718 15.36860610309767
ZHUHAI-1 02 (CAS-4B)    
1 42759U 17034B   22251.48585339  .00003438  00000+0  20727-3 0  9997
2 42759  43.0156 234.8560 0008120  89.3995  56.0725 15.12378021288924
ZHUHAI-1 01 (CAS-4A)    
1 42761U 17034D   22251.44950697  .00003167  00000+0  19153-3 0  9999
2 42761  43.0169 233.7831 0008484  88.5355  49.7098 15.12460466288921
MAX VALIER SAT          
1 42778U 17036P   22251.38563228  .00007858  00000+0  28900-3 0  9993
2 42778  97.1992 289.6679 0011497  40.8583 319.3517 15.28082299289569
RADFXSAT (FOX-1B)       
1 43017U 17073E   22251.23481614  .00003548  00000+0  26973-3 0  9993
2 43017  97.6632 142.0256 0245286 276.7221  80.6136 14.81940634259374
FOX-1D (AO-92)          
1 43137U 18004AC  22251.15327529  .00009996  00000+0  33904-3 0  9991
2 43137  97.3640 325.6162 0008830  74.0416 286.1797 15.30692161258992
DIWATA-2B               
1 43678U 18084H   22251.53071566  .00000787  00000+0  82876-4 0  9990
2 43678  97.9816  25.8269 0010275  18.8688 341.2939 14.92282266210248
ES'HAIL 2               
1 43700U 18090A   22251.25465912  .00000123  00000+0  00000+0 0  9992
2 43700   0.0127 222.5341 0002192 334.9941 267.2522  1.00273217 13869
FOX-1CLIFF (AO-95)      
1 43770U 18099N   22251.16207983  .00001668  00000+0  15059-3 0  9999
2 43770  97.6143 315.3534 0014063   3.9416 356.1914 14.96752568205384
ITASAT 1                
1 43786U 18099AE  22251.14852048  .00001760  00000+0  15821-3 0  9992
2 43786  97.6181 316.3019 0014577 358.2740   1.8429 14.96861185205424
JY1SAT (JO-97)          
1 43803U 18099AX  22251.40429259  .00003108  00000+0  27158-3 0  9999
2 43803  97.6141 316.3323 0014121 357.0357   3.0779 14.97427593205484
UWE-4                   
1 43880U 18111E   22251.21049769  .00002949  00000+0  25103-3 0  9992
2 43880  97.6588 156.0642 0012801  49.7863 310.4477 14.98507241202091
NEXUS (FO-99)           
1 43937U 19003F   22251.53827580  .00012429  00000+0  39784-3 0  9990
2 43937  97.1256 281.7271 0018828 210.7423 149.2718 15.32357115202696
PSAT2 (NO-104)          
1 44354U 19036R   22251.53082969  .00088731 -45697-5  68511-3 0  9991
2 44354  28.5246 318.9152 0202074 192.6648 166.8821 15.47957121177536
JAISAT-1                
1 44419U 19038F   22251.36919527  .00006713  00000+0  32865-3 0  9990
2 44419  97.6428 222.2563 0018046 198.3577 161.7007 15.18379872175636
DUCHIFAT-3              
1 44854U 19089C   22251.60229079  .00003731  00000+0  28869-3 0  9998
2 44854  36.9680 327.2380 0007397 182.1978 319.5368 15.01519838150435
CAS-6 (TIANQIN 1)       
1 44881U 19093C   22251.50309629  .00000446  00000+0  63105-4 0  9995
2 44881  97.8889 329.5085 0013614 277.4559  82.5105 14.81802736147072
RS-44 & BREEZE-KM R/B   
1 44909U 19096E   22251.53371785  .00000016  00000+0  12879-4 0  9999
2 44909  82.5252 175.0905 0218162 125.2949 236.8772 12.79714689126133
ORBITAL FACTORY 2 (OF-2)
1 45113U 19071C   22251.49296546  .00034277  00000+0  62213-3 0  9998
2 45113  51.6381   9.6516 0008033 115.1107 245.0716 15.49222151146230
HUSKYSAT-1 (HO-107)     
1 45119U 19071J   22251.36698574  .00026057  00000+0  49969-3 0  9997
2 45119  51.6383  11.0286 0008252 110.8478 249.3394 15.47788159146192
BY70-2                  
1 45857U 20042B   22251.57186454  .00005833  00000+0  76562-3 0  9996
2 45857  97.9511 327.6531 0010155 200.1289 159.9561 14.80621962117750
SALSAT                  
1 46495U 20068K   22251.35721649  .00002003  00000+0  14601-3 0  9992
2 46495  97.7335 192.7156 0016477   4.1068 356.0290 15.04800002106652
BY70-3                  
1 46839U 20079N   22251.48834736  .00028605  00000+0  60414-3 0  9991
2 46839  97.1916 322.6433 0005649  47.8320  50.5869 15.45132430103056
RADFXSAT-2 (AO-109)     
1 47311U 21002C   22251.42797993  .00007887  00000+0  30727-3 0  9994
2 47311  60.6855  49.6328 0030920  34.3331 325.9747 15.26397792 91122
UVSQ-SAT                
1 47438U 21006AB  22251.11165512  .00005968  00000+0  30953-3 0  9999
2 47438  97.4305 308.4353 0011243 356.2600   3.8547 15.16467307 89807
DIY-1 (ARDUIQUBE)       
1 47963U 21022AH  22251.19651109  .00015654  00000+0  82532-3 0  9993
2 47963  97.5228 151.6825 0015011 199.0864 160.9808 15.15562844 79477
XW-3 (CAS-9)            
1 50466U 21131B   22251.50061626  .00000152  00000+0  64392-4 0  9992
2 50466  98.5765 328.7004 0003445 254.4441 105.6366 14.38520159 36854
TEVEL-3                 
1 50988U 22002E   22251.45613634  .00007631  00000+0  40807-3 0  9998
2 50988  97.4750 317.0737 0010536 131.0699 284.3402 15.15302728 35988
TEVEL-8                 
1 50989U 22002F   22251.46437565  .00007610  00000+0  40753-3 0  9994
2 50989  97.4768 317.1099 0010773 130.0899 286.7523 15.15249368 35984
TEVEL-5                 
1 50998U 22002Q   22251.45062698  .00008057  00000+0  42445-3 0  9990
2 50998  97.4741 317.2097 0012224 128.3310 288.4142 15.15801263 35990
TEVEL-6                 
1 50999U 22002R   22251.45022304  .00007949  00000+0  41876-3 0  9997
2 50999  97.4743 317.2077 0012065 127.0374 290.6978 15.15805625 35998
TEVEL-1                 
1 51013U 22002AF  22251.39478303  .00007314  00000+0  39157-3 0  9997
2 51013  97.4758 316.9916 0010970 131.6239 289.8011 15.15272908 35972
TEVEL-7                 
1 51062U 22002CG  22251.46601946  .00007436  00000+0  39841-3 0  9995
2 51062  97.4762 317.0956 0010720 129.5582 286.4694 15.15240682 35982
TEVEL-4                 
1 51063U 22002CH  22251.45905938  .00007415  00000+0  39741-3 0  9999
2 51063  97.4763 317.0850 0010895 129.7892 243.1700 15.15230753 35982
TEVEL-2                 
1 51069U 22002CP  22251.45810249  .00007673  00000+0  41036-3 0  9991
2 51069  97.4746 317.0595 0010533 130.9553 287.4830 15.15295861 35988
YUZGU 9 (RS3S)          
1 53308U 98067TT  22251.49772110  .00046548  00000+0  72663-3 0  9995
2 53308  51.6403 283.2961 0000672 139.1360 220.9680 15.53345421  7657
YUZGU 7 (RS1S)          
1 53309U 98067TU  22251.49611308  .00048316  00000+0  75115-3 0  9997
2 53309  51.6400 283.2841 0000686 224.0346 136.0590 15.53441803  7608
YUZGU 11 (RS5S)         
1 53310U 98067TV  22251.49736178  .00046288  00000+0  72290-3 0  9999
2 53310  51.6404 283.2944 0000489 231.4559 128.6388 15.53334847  7631
YUZGU 12 (RS6S)         
1 53311U 98067TW  22251.49288085  .00047635  00000+0  73668-3 0  9996
2 53311  51.6398 283.2621 0000951 110.2836 249.8257 15.53593564  7658
TSIOLKOVSKY-RYAZAN 1 (*)
1 53312U 98067TX  22251.49444404  .00047298  00000+0  73415-3 0  9991
2 53312  51.6404 283.2737 0000876 232.9564 127.1347 15.53495646  7594
TSIOLKOVSKY-RYAZAN 2 (*)
1 53313U 98067TY  22251.49312153  .00046676  00000+0  72388-3 0  9994
2 53313  51.6402 283.2653 0000565 266.5505  93.5421 15.53525033  7642
YUZGU 10 (RS4S)         
1 53321U 98067TZ  22251.49815322  .00047285  00000+0  73743-3 0  9992
2 53321  51.6406 283.3011 0000419 165.3864 194.7138 15.53364860  7644
RS29S (SXC3-2110 CYCLO*)
1 53373U 22096D   22251.51865830  .00010111  00000+0  41033-3 0  9995
2 53373  97.4328 152.7601 0003782  81.9731  43.9211 15.24795124  4607
RS32S (SXC3-212 MONITO*)
1 53374U 22096E   22251.51643608  .00010289  00000+0  41610-3 0  9990
2 53374  97.4332 152.7615 0003600  76.8490  48.4185 15.24905329  4602
RS34S (SXC3-218 KUZBAS*)
1 53375U 22096F   22251.51626420  .00008779  00000+0  35580-3 0  9994
2 53375  97.4333 152.7620 0003549  74.4203  50.5496 15.24881182  4607
RS23S (SXC3-21 UTMN)    
1 53376U 22096G   22251.57995667  .00007861  00000+0  31863-3 0  9994
2 53376  97.4328 152.8272 0003529  75.4656  42.9263 15.24910858  4618
RS28S (SXC3-214 MIET-A*)
1 53377U 22096H   22251.57941153  .00008808  00000+0  35627-3 0  9990
2 53377  97.4330 152.8296 0003712  71.8630  46.5917 15.24946036  4617
RS26S (KAI-1)           
1 53378U 22096J   22251.51448122  .00007522  00000+0  30469-3 0  9994
2 53378  97.4323 152.7647 0003454  67.8028  57.5668 15.24950263  4609
RS19S (SXC3-219 ISOI)   
1 53381U 22096M   22251.50632323  .00008589  00000+0  34294-3 0  9999
2 53381  97.4329 152.7752 0004276  14.1738 111.2057 15.25387302  4601
RS21S (CUBESX-HSE-2)    
1 53383U 22096P   22251.56986407  .00008213  00000+0  32753-3 0  9994
2 53383  97.4334 152.8416 0004460  12.3817 108.1953 15.25439736  4610
RS30S (SXC3-217 SIREN)  
1 53384U 22096Q   22251.56956199  .00007738  00000+0  30871-3 0  9990
2 53384  97.4325 152.8420 0004548  10.7650 110.1427 15.25446762  4616
RS20S (GEOSCAN-EDELVEIS)
1 53385U 22096R   22251.56229816  .00010965  00000+0  43312-3 0  9990
2 53385  97.4321 152.8418 0005031   8.3945  91.0876 15.25674252  4643
RS33S (SXC3-215 VIZARD) 
1 53386U 22096S   22251.49336137  .00012688  00000+0  49647-3 0  9999
2 53386  97.4328 152.7844 0005759   6.9802  99.4512 15.25947500  4622
